CCSDS_OMM_VERS = 2.0
CREATION_DATE  = 
ORIGINATOR     = 

OBJECT_NAME    = HULIANWANG DIGUI-141
OBJECT_ID      = 2026-007E
CENTER_NAME    = EARTH
REF_FRAME      = TEME
TIME_SYSTEM    = UTC
MEAN_ELEMENT_THEORY = SGP/SGP4

EPOCH          = 2026-01-31T14:11:30.746112
MEAN_MOTION    = 13.83477078
ECCENTRICITY   = .00008481
INCLINATION    = 49.9978
RA_OF_ASC_NODE = 223.0465
ARG_OF_PERICENTER = 110.8917
MEAN_ANOMALY   = 249.2070

EPHEMERIS_TYPE = 0
CLASSIFICATION_TYPE = U
NORAD_CAT_ID   = 67439
ELEMENT_SET_NO = 999
REV_AT_EPOCH   = 250
BSTAR          = .15542227E-3
MEAN_MOTION_DOT = .28E-6
MEAN_MOTION_DDOT = 0

CCSDS_OMM_VERS = 2.0
CREATION_DATE  = 
ORIGINATOR     = 

OBJECT_NAME    = HULIANWANG DIGUI-142
OBJECT_ID      = 2026-007F
CENTER_NAME    = EARTH
REF_FRAME      = TEME
TIME_SYSTEM    = UTC
MEAN_ELEMENT_THEORY = SGP/SGP4

EPOCH          = 2026-02-01T07:28:16.121280
MEAN_MOTION    = 13.82985756
ECCENTRICITY   = .00004172
INCLINATION    = 50.0115
RA_OF_ASC_NODE = 220.2151
ARG_OF_PERICENTER = 200.5820
MEAN_ANOMALY   = 159.5059

EPHEMERIS_TYPE = 0
CLASSIFICATION_TYPE = U
NORAD_CAT_ID   = 67440
ELEMENT_SET_NO = 999
REV_AT_EPOCH   = 260
BSTAR          = .12340091E-4
MEAN_MOTION_DOT = -.13E-5
MEAN_MOTION_DDOT = 0

CCSDS_OMM_VERS = 2.0
CREATION_DATE  = 
ORIGINATOR     = 

OBJECT_NAME    = HULIANWANG DIGUI-143
OBJECT_ID      = 2026-007G
CENTER_NAME    = EARTH
REF_FRAME      = TEME
TIME_SYSTEM    = UTC
MEAN_ELEMENT_THEORY = SGP/SGP4

EPOCH          = 2026-01-31T14:04:24.890016
MEAN_MOTION    = 13.83872752
ECCENTRICITY   = .00010017
INCLINATION    = 50.0093
RA_OF_ASC_NODE = 223.0431
ARG_OF_PERICENTER = 325.2229
MEAN_ANOMALY   = 34.8601

EPHEMERIS_TYPE = 0
CLASSIFICATION_TYPE = U
NORAD_CAT_ID   = 67441
ELEMENT_SET_NO = 999
REV_AT_EPOCH   = 250
BSTAR          = .15216351E-3
MEAN_MOTION_DOT = .26E-6
MEAN_MOTION_DDOT = 0

CCSDS_OMM_VERS = 2.0
CREATION_DATE  = 
ORIGINATOR     = 

OBJECT_NAME    = HULIANWANG DIGUI-144
OBJECT_ID      = 2026-007H
CENTER_NAME    = EARTH
REF_FRAME      = TEME
TIME_SYSTEM    = UTC
MEAN_ELEMENT_THEORY = SGP/SGP4

EPOCH          = 2026-01-31T14:01:13.993536
MEAN_MOTION    = 13.84034518
ECCENTRICITY   = .00051728
INCLINATION    = 50.0080
RA_OF_ASC_NODE = 223.0330
ARG_OF_PERICENTER = 307.2161
MEAN_ANOMALY   = 52.8262

EPHEMERIS_TYPE = 0
CLASSIFICATION_TYPE = U
NORAD_CAT_ID   = 67442
ELEMENT_SET_NO = 999
REV_AT_EPOCH   = 250
BSTAR          = .13836023E-3
MEAN_MOTION_DOT = .11E-6
MEAN_MOTION_DDOT = 0

CCSDS_OMM_VERS = 2.0
CREATION_DATE  = 
ORIGINATOR     = 

OBJECT_NAME    = HULIANWANG DIGUI-145
OBJECT_ID      = 2026-007J
CENTER_NAME    = EARTH
REF_FRAME      = TEME
TIME_SYSTEM    = UTC
MEAN_ELEMENT_THEORY = SGP/SGP4

EPOCH          = 2026-01-31T13:57:04.129056
MEAN_MOTION    = 13.84182129
ECCENTRICITY   = .00005405
INCLINATION    = 50.0078
RA_OF_ASC_NODE = 223.0124
ARG_OF_PERICENTER = 298.4890
MEAN_ANOMALY   = 61.5952

EPHEMERIS_TYPE = 0
CLASSIFICATION_TYPE = U
NORAD_CAT_ID   = 67443
ELEMENT_SET_NO = 999
REV_AT_EPOCH   = 250
BSTAR          = .15612539E-3
MEAN_MOTION_DOT = .31E-6
MEAN_MOTION_DDOT = 0

CCSDS_OMM_VERS = 2.0
CREATION_DATE  = 
ORIGINATOR     = 

OBJECT_NAME    = CZ-8A R/B
OBJECT_ID      = 2026-007K
CENTER_NAME    = EARTH
REF_FRAME      = TEME
TIME_SYSTEM    = UTC
MEAN_ELEMENT_THEORY = SGP/SGP4

EPOCH          = 2026-02-02T04:48:34.725888
MEAN_MOTION    = 14.13550746
ECCENTRICITY   = .0092173
INCLINATION    = 50.0084
RA_OF_ASC_NODE = 213.5485
ARG_OF_PERICENTER = 150.1347
MEAN_ANOMALY   = 210.4865

EPHEMERIS_TYPE = 0
CLASSIFICATION_TYPE = U
NORAD_CAT_ID   = 67444
ELEMENT_SET_NO = 999
REV_AT_EPOCH   = 276
BSTAR          = -.11725E-4
MEAN_MOTION_DOT = -.179E-5
MEAN_MOTION_DDOT = 0

CCSDS_OMM_VERS = 2.0
CREATION_DATE  = 
ORIGINATOR     = 

OBJECT_NAME    = STARLINK-36542
OBJECT_ID      = 2026-008A
CENTER_NAME    = EARTH
REF_FRAME      = TEME
TIME_SYSTEM    = UTC
MEAN_ELEMENT_THEORY = SGP/SGP4

EPOCH          = 2026-02-02T12:00:01.999296
MEAN_MOTION    = 15.72195397
ECCENTRICITY   = .0001396
INCLINATION    = 43.0001
RA_OF_ASC_NODE = 47.0704
ARG_OF_PERICENTER = 285.3789
MEAN_ANOMALY   = 116.1238

EPHEMERIS_TYPE = 0
CLASSIFICATION_TYPE = U
NORAD_CAT_ID   = 67445
ELEMENT_SET_NO = 999
REV_AT_EPOCH   = 413
BSTAR          = -.16912E-1
MEAN_MOTION_DOT = -.2024688E-1
MEAN_MOTION_DDOT = 0

CCSDS_OMM_VERS = 2.0
CREATION_DATE  = 
ORIGINATOR     = 

OBJECT_NAME    = STARLINK-36539
OBJECT_ID      = 2026-008B
CENTER_NAME    = EARTH
REF_FRAME      = TEME
TIME_SYSTEM    = UTC
MEAN_ELEMENT_THEORY = SGP/SGP4

EPOCH          = 2026-02-02T12:00:01.999296
MEAN_MOTION    = 15.74108021
ECCENTRICITY   = .0001541
INCLINATION    = 43.0003
RA_OF_ASC_NODE = 47.0587
ARG_OF_PERICENTER = 279.2069
MEAN_ANOMALY   = 127.0827

EPHEMERIS_TYPE = 0
CLASSIFICATION_TYPE = U
NORAD_CAT_ID   = 67446
ELEMENT_SET_NO = 999
REV_AT_EPOCH   = 413
BSTAR          = -.15663E-1
MEAN_MOTION_DOT = -.2036028E-1
MEAN_MOTION_DDOT = 0

CCSDS_OMM_VERS = 2.0
CREATION_DATE  = 
ORIGINATOR     = 

OBJECT_NAME    = STARLINK-36440
OBJECT_ID      = 2026-008C
CENTER_NAME    = EARTH
REF_FRAME      = TEME
TIME_SYSTEM    = UTC
MEAN_ELEMENT_THEORY = SGP/SGP4

EPOCH          = 2026-02-02T12:00:01.999296
MEAN_MOTION    = 15.75042813
ECCENTRICITY   = .0001619
INCLINATION    = 43.0001
RA_OF_ASC_NODE = 47.0530
ARG_OF_PERICENTER = 258.1484
MEAN_ANOMALY   = 150.3910

EPHEMERIS_TYPE = 0
CLASSIFICATION_TYPE = U
NORAD_CAT_ID   = 67447
ELEMENT_SET_NO = 999
REV_AT_EPOCH   = 413
BSTAR          = -.94859E-4
MEAN_MOTION_DOT = -.15025E-3
MEAN_MOTION_DDOT = 0

CCSDS_OMM_VERS = 2.0
CREATION_DATE  = 
ORIGINATOR     = 

OBJECT_NAME    = STARLINK-36423
OBJECT_ID      = 2026-008D
CENTER_NAME    = EARTH
REF_FRAME      = TEME
TIME_SYSTEM    = UTC
MEAN_ELEMENT_THEORY = SGP/SGP4

EPOCH          = 2026-02-02T12:00:01.999296
MEAN_MOTION    = 15.69499601
ECCENTRICITY   = .0001242
INCLINATION    = 43.0001
RA_OF_ASC_NODE = 47.0781
ARG_OF_PERICENTER = 280.6026
MEAN_ANOMALY   = 117.6575

EPHEMERIS_TYPE = 0
CLASSIFICATION_TYPE = U
NORAD_CAT_ID   = 67448
ELEMENT_SET_NO = 999
REV_AT_EPOCH   = 413
BSTAR          = -.1888E-1
MEAN_MOTION_DOT = -.2016582E-1
MEAN_MOTION_DDOT = 0

CCSDS_OMM_VERS = 2.0
CREATION_DATE  = 
ORIGINATOR     = 

OBJECT_NAME    = STARLINK-36519
OBJECT_ID      = 2026-008E
CENTER_NAME    = EARTH
REF_FRAME      = TEME
TIME_SYSTEM    = UTC
MEAN_ELEMENT_THEORY = SGP/SGP4

EPOCH          = 2026-02-02T12:00:01.999296
MEAN_MOTION    = 15.75060327
ECCENTRICITY   = .0001513
INCLINATION    = 43.0002
RA_OF_ASC_NODE = 47.0424
ARG_OF_PERICENTER = 269.4534
MEAN_ANOMALY   = 142.9135

EPHEMERIS_TYPE = 0
CLASSIFICATION_TYPE = U
NORAD_CAT_ID   = 67449
ELEMENT_SET_NO = 999
REV_AT_EPOCH   = 413
BSTAR          = -.30777E-3
MEAN_MOTION_DOT = -.47531E-3
MEAN_MOTION_DDOT = 0

CCSDS_OMM_VERS = 2.0
CREATION_DATE  = 
ORIGINATOR     = 

OBJECT_NAME    = STARLINK-36525
OBJECT_ID      = 2026-008F
CENTER_NAME    = EARTH
REF_FRAME      = TEME
TIME_SYSTEM    = UTC
MEAN_ELEMENT_THEORY = SGP/SGP4

EPOCH          = 2026-02-02T12:00:01.999296
MEAN_MOTION    = 15.71988323
ECCENTRICITY   = .0001493
INCLINATION    = 43.0002
RA_OF_ASC_NODE = 47.0468
ARG_OF_PERICENTER = 274.6275
MEAN_ANOMALY   = 135.9710

EPHEMERIS_TYPE = 0
CLASSIFICATION_TYPE = U
NORAD_CAT_ID   = 67450
ELEMENT_SET_NO = 999
REV_AT_EPOCH   = 413
BSTAR          = -.17031E-1
MEAN_MOTION_DOT = -.2021412E-1
MEAN_MOTION_DDOT = 0

CCSDS_OMM_VERS = 2.0
CREATION_DATE  = 
ORIGINATOR     = 

OBJECT_NAME    = STARLINK-36511
OBJECT_ID      = 2026-008G
CENTER_NAME    = EARTH
REF_FRAME      = TEME
TIME_SYSTEM    = UTC
MEAN_ELEMENT_THEORY = SGP/SGP4

EPOCH          = 2026-02-02T12:00:01.999296
MEAN_MOTION    = 15.69762142
ECCENTRICITY   = .0001373
INCLINATION    = 43.0000
RA_OF_ASC_NODE = 47.0607
ARG_OF_PERICENTER = 280.6337
MEAN_ANOMALY   = 124.5107

EPHEMERIS_TYPE = 0
CLASSIFICATION_TYPE = U
NORAD_CAT_ID   = 67451
ELEMENT_SET_NO = 999
REV_AT_EPOCH   = 413
BSTAR          = -.18679E-1
MEAN_MOTION_DOT = -.201726E-1
MEAN_MOTION_DDOT = 0

CCSDS_OMM_VERS = 2.0
CREATION_DATE  = 
ORIGINATOR     = 

OBJECT_NAME    = STARLINK-36524
OBJECT_ID      = 2026-008H
CENTER_NAME    = EARTH
REF_FRAME      = TEME
TIME_SYSTEM    = UTC
MEAN_ELEMENT_THEORY = SGP/SGP4

EPOCH          = 2026-02-02T12:00:01.999296
MEAN_MOTION    = 15.72796787
ECCENTRICITY   = .0001469
INCLINATION    = 43.0001
RA_OF_ASC_NODE = 47.0328
ARG_OF_PERICENTER = 280.6225
MEAN_ANOMALY   = 135.5129

EPHEMERIS_TYPE = 0
CLASSIFICATION_TYPE = U
NORAD_CAT_ID   = 67452
ELEMENT_SET_NO = 999
REV_AT_EPOCH   = 413
BSTAR          = -.1644E-1
MEAN_MOTION_DOT = -.202057E-1
MEAN_MOTION_DDOT = 0

CCSDS_OMM_VERS = 2.0
CREATION_DATE  = 
ORIGINATOR     = 

OBJECT_NAME    = STARLINK-36518
OBJECT_ID      = 2026-008J
CENTER_NAME    = EARTH
REF_FRAME      = TEME
TIME_SYSTEM    = UTC
MEAN_ELEMENT_THEORY = SGP/SGP4

EPOCH          = 2026-02-02T12:00:01.999296
MEAN_MOTION    = 15.75420953
ECCENTRICITY   = .0001176
INCLINATION    = 42.9989
RA_OF_ASC_NODE = 46.6587
ARG_OF_PERICENTER = 271.5363
MEAN_ANOMALY   = 291.2235

EPHEMERIS_TYPE = 0
CLASSIFICATION_TYPE = U
NORAD_CAT_ID   = 67453
ELEMENT_SET_NO = 999
REV_AT_EPOCH   = 415
BSTAR          = -.13481E-1
MEAN_MOTION_DOT = -.1840399E-1
MEAN_MOTION_DDOT = 0

